*******************************************************************************
 Revised: Jun 17, 2016           Europa / (Jupiter)                         502

 SATELLITE PHYSICAL PROPERTIES:
  Radius (km)             = 1565   +- 8     Density (g cm^-3)   =  2.99 +- 0.05
  Mass (10^20 kg )        =  479.7 +- 1.5   Geometric Albedo    =  0.6  

 SATELLITE ORBITAL DATA:
  Semi-major axis, a (km) = 671.079 (10^3)  Orbital period      = 3.551810 d
  Eccentricity, e         = 0.0101          Rotational period   = Synchronous
  Inclination, i  (deg)   = 0.464
*******************************************************************************
 
 
*******************************************************************************
Ephemeris / WWW_USER Mon Jan 23 07:43:44 2017 Pasadena, USA      / Horizons    
*******************************************************************************
Target body name: Europa (502)                    {source: jup310}
Center body name: Jupiter (599)                   {source: jup310}
Center-site name: BODYCENTRIC
*******************************************************************************
Start time      : A.D. 2016-Nov-01 00:00:00.0000 UT      
Stop  time      : A.D. 2016-Dec-01 00:00:00.0000 UT      
Step-size       : 60 minutes
*******************************************************************************
Target pole/equ : IAU_EUROPA                      {East-longitude -}
Target radii    : 1562.6 x 1560.3 x 1559.5 km     {Equator, meridian, pole}    
Center geodetic : 0.00000000,0.00000000,0.0000000 {E-lon(deg),Lat(deg),Alt(km)}
Center cylindric: 0.00000000,0.00000000,0.0000000 {E-lon(deg),Dxy(km),Dz(km)}
Center pole/equ : IAU_JUPITER                     {East-longitude -}
Center radii    : 71492.0 x 71492.0 x 66854.0 km  {Equator, meridian, pole}    
Target primary  : Jupiter
Vis. interferer : GANYMEDE (R_eq= 2631.200) km    {source: jup310}
Rel. light bend : Sun, JUPITER                    {source: jup310}
Rel. lght bnd GM: 1.3271E+11, 1.2669E+08 km^3/s^2                              
Atmos refraction: NO (AIRLESS)
RA format       : DEG
Time format     : CAL 
EOP file        : eop.170120.p170413                                           
EOP coverage    : DATA-BASED 1962-JAN-20 TO 2017-JAN-20. PREDICTS-> 2017-APR-12
Units conversion: 1 au= 149597870.700 km, c= 299792.458 km/s, 1 day= 86400.0 s 
Table cut-offs 1: Elevation (-90.0deg=NO ),Airmass     n.a.    , Daylight (NO )
Table cut-offs 2: Solar Elongation (  0.0,180.0=NO ),Local Hour Angle( 0.0=NO )
Table format    : Comma Separated Values (spreadsheet)
*******************************************************************************
 Date__(UT)__HR:MN:SS, , ,   ObsEcLon,   ObsEcLat,
**************************************************
$$SOE
 2016-Nov-06 21:00:00, , ,230.0211482, -2.5450378,
 2016-Nov-06 22:00:00, , ,234.2036736, -2.6013733,
 2016-Nov-06 23:00:00, , ,238.3916419, -2.6439128,
 2016-Nov-07 00:00:00, , ,242.5851915, -2.6723781,
 2016-Nov-07 01:00:00, , ,246.7844287, -2.6865623,
 2016-Nov-07 02:00:00, , ,250.9894273, -2.6863316,
 2016-Nov-07 03:00:00, , ,255.2002301, -2.6716278,
 2016-Nov-07 04:00:00, , ,259.4168497, -2.6424692,
 2016-Nov-07 05:00:00, , ,263.6392702, -2.5989526,
 2016-Nov-07 06:00:00, , ,267.8674477, -2.5412533,
 2016-Nov-07 07:00:00, , ,272.1013125, -2.4696260,
 2016-Nov-07 08:00:00, , ,276.3407701, -2.3844045,
 2016-Nov-07 09:00:00, , ,280.5857031, -2.2860009,
 2016-Nov-07 10:00:00, , ,284.8359719, -2.1749045,
 2016-Nov-07 11:00:00, , ,289.0914172, -2.0516805,
 2016-Nov-07 12:00:00, , ,293.3518601, -1.9169673,
 2016-Nov-07 13:00:00, , ,297.6171044, -1.7714739,
 2016-Nov-07 14:00:00, , ,301.8869369, -1.6159766,
 2016-Nov-07 15:00:00, , ,306.1611284, -1.4513152,
 2016-Nov-07 16:00:00, , ,310.4394347, -1.2783884,
 2016-Nov-07 17:00:00, , ,314.7215970, -1.0981489,
 2016-Nov-07 18:00:00, , ,319.0073423, -0.9115983,
 2016-Nov-07 19:00:00, , ,323.2963834, -0.7197809,
 2016-Nov-07 20:00:00, , ,327.5884194, -0.5237775,
 2016-Nov-07 21:00:00, , ,331.8831358, -0.3246988,
 2016-Nov-07 22:00:00, , ,336.1802040, -0.1236782,
 2016-Nov-07 23:00:00, , ,340.4792823,  0.0781350,
 2016-Nov-08 00:00:00, , ,344.7800153,  0.2795837,
 2016-Nov-08 01:00:00, , ,349.0820353,  0.4795100,
 2016-Nov-08 02:00:00, , ,353.3849622,  0.6767634,
 2016-Nov-08 03:00:00, , ,357.6884055,  0.8702084,
 2016-Nov-08 04:00:00, , ,  1.9919651,  1.0587320,
 2016-Nov-08 05:00:00, , ,  6.2952332,  1.2412511,
 2016-Nov-08 06:00:00, , , 10.5977959,  1.4167202,
 2016-Nov-08 07:00:00, , , 14.8992356,  1.5841379,
 2016-Nov-08 08:00:00, , , 19.1991325,  1.7425535,
 2016-Nov-08 09:00:00, , , 23.4970672,  1.8910735,
 2016-Nov-08 10:00:00, , , 27.7926226,  2.0288666,
 2016-Nov-08 11:00:00, , , 32.0853864,  2.1551692,
 2016-Nov-08 12:00:00, , , 36.3749534,  2.2692897,
 2016-Nov-08 13:00:00, , , 40.6609283,  2.3706125,
 2016-Nov-08 14:00:00, , , 44.9429287,  2.4586012,
 2016-Nov-08 15:00:00, , , 49.2205875,  2.5328010,
 2016-Nov-08 16:00:00, , , 53.4935564,  2.5928410,
 2016-Nov-08 17:00:00, , , 57.7615086,  2.6384352,
 2016-Nov-08 18:00:00, , , 62.0241422,  2.6693833,
 2016-Nov-08 19:00:00, , , 66.2811828,  2.6855704,
 2016-Nov-08 20:00:00, , , 70.5323865,  2.6869669,
 2016-Nov-08 21:00:00, , , 74.7775429,  2.6736272,
 2016-Nov-08 22:00:00, , , 79.0164771,  2.6456876,
 2016-Nov-08 23:00:00, , , 83.2490520,  2.6033647,
 2016-Nov-09 00:00:00, , , 87.4751704,  2.5469524,
 2016-Nov-09 01:00:00, , , 91.6947764,  2.4768191,
 2016-Nov-09 02:00:00, , , 95.9078565,  2.3934042,
 2016-Nov-09 03:00:00, , ,100.1144402,  2.2972143,
 2016-Nov-09 04:00:00, , ,104.3146007,  2.1888198,
 2016-Nov-09 05:00:00, , ,108.5084546,  2.0688500,
 2016-Nov-09 06:00:00, , ,112.6961613,  1.9379897,
 2016-Nov-09 07:00:00, , ,116.8779222,  1.7969739,
 2016-Nov-09 08:00:00, , ,121.0539793,  1.6465839,
 2016-Nov-09 09:00:00, , ,125.2246137,  1.4876426,
 2016-Nov-09 10:00:00, , ,129.3901433,  1.3210101,
 2016-Nov-09 11:00:00, , ,133.5509206,  1.1475787,
 2016-Nov-09 12:00:00, , ,137.7073300,  0.9682688,
 2016-Nov-09 13:00:00, , ,141.8597849,  0.7840241,
 2016-Nov-09 14:00:00, , ,146.0087249,  0.5958077,
 2016-Nov-09 15:00:00, , ,150.1546127,  0.4045968,
 2016-Nov-09 16:00:00, , ,154.2979308,  0.2113793,
 2016-Nov-09 17:00:00, , ,158.4391790,  0.0171490,
 2016-Nov-09 18:00:00, , ,162.5788716, -0.1770987,
 2016-Nov-09 19:00:00, , ,166.7175344, -0.3703705,
 2016-Nov-09 20:00:00, , ,170.8557020, -0.5616796,
 2016-Nov-09 21:00:00, , ,174.9939131, -0.7500496,
 2016-Nov-09 22:00:00, , ,179.1327043, -0.9345182,
 2016-Nov-09 23:00:00, , ,183.2726028, -1.1141413,
 2016-Nov-10 00:00:00, , ,187.4141201, -1.2879963,
 2016-Nov-10 01:00:00, , ,191.5577465, -1.4551864,
 2016-Nov-10 02:00:00, , ,195.7039487, -1.6148443,
 2016-Nov-10 03:00:00, , ,199.8531677, -1.7661359,
 2016-Nov-10 04:00:00, , ,204.0058172, -1.9082646,
 2016-Nov-10 05:00:00, , ,208.1622823, -2.0404748,
 2016-Nov-10 06:00:00, , ,212.3229178, -2.1620558,
 2016-Nov-10 07:00:00, , ,216.4880473, -2.2723457,
 2016-Nov-10 08:00:00, , ,220.6579618, -2.3707347,
 2016-Nov-10 09:00:00, , ,224.8329186, -2.4566692,
 2016-Nov-10 10:00:00, , ,229.0131409, -2.5296547,
 2016-Nov-10 11:00:00, , ,233.1988173, -2.5892592,
 2016-Nov-10 12:00:00, , ,237.3901014, -2.6351167,
 2016-Nov-10 13:00:00, , ,241.5871123, -2.6669294,
 2016-Nov-10 14:00:00, , ,245.7899352, -2.6844710,
 2016-Nov-10 15:00:00, , ,249.9986217, -2.6875887,
 2016-Nov-10 16:00:00, , ,254.2131911, -2.6762054,
 2016-Nov-10 17:00:00, , ,258.4336315, -2.6503213,
 2016-Nov-10 18:00:00, , ,262.6599010, -2.6100152,
 2016-Nov-10 19:00:00, , ,266.8919299, -2.5554457,
 2016-Nov-10 20:00:00, , ,271.1296212, -2.4868510,
 2016-Nov-10 21:00:00, , ,275.3728534, -2.4045494,
 2016-Nov-10 22:00:00, , ,279.6214817, -2.3089387,
 2016-Nov-10 23:00:00, , ,283.8753398, -2.2004946,
 2016-Nov-11 00:00:00, , ,288.1342416, -2.0797696,
 2016-Nov-11 01:00:00, , ,292.3979828, -1.9473907,
 2016-Nov-11 02:00:00, , ,296.6663427, -1.8040564,
 2016-Nov-11 03:00:00, , ,300.9390851, -1.6505334,
 2016-Nov-11 04:00:00, , ,305.2159599, -1.4876529,
 2016-Nov-11 05:00:00, , ,309.4967042, -1.3163061,
 2016-Nov-11 06:00:00, , ,313.7810431, -1.1374393,
 2016-Nov-11 07:00:00, , ,318.0686903, -0.9520480,
 2016-Nov-11 08:00:00, , ,322.3593492, -0.7611718,
 2016-Nov-11 09:00:00, , ,326.6527129, -0.5658874,
 2016-Nov-11 10:00:00, , ,330.9484652, -0.3673023,
 2016-Nov-11 11:00:00, , ,335.2462800, -0.1665474,
 2016-Nov-11 12:00:00, , ,339.5458224,  0.0352296,
 2016-Nov-11 13:00:00, , ,343.8467486,  0.2368723,
 2016-Nov-11 14:00:00, , ,348.1487060,  0.4372229,
 2016-Nov-11 15:00:00, , ,352.4513339,  0.6351298,
 2016-Nov-11 16:00:00, , ,356.7542636,  0.8294553,
 2016-Nov-11 17:00:00, , ,  1.0571191,  1.0190833,
 2016-Nov-11 18:00:00, , ,  5.3595181,  1.2029264,
 2016-Nov-11 19:00:00, , ,  9.6610724,  1.3799332,
 2016-Nov-11 20:00:00, , , 13.9613899,  1.5490953,
 2016-Nov-11 21:00:00, , , 18.2600750,  1.7094536,
 2016-Nov-11 22:00:00, , , 22.5567313,  1.8601048,
 2016-Nov-11 23:00:00, , , 26.8509630,  2.0002066,
 2016-Nov-12 00:00:00, , , 31.1423773,  2.1289831,
 2016-Nov-12 01:00:00, , , 35.4305865,  2.2457292,
 2016-Nov-12 02:00:00, , , 39.7152113,  2.3498148,
 2016-Nov-12 03:00:00, , , 43.9958831,  2.4406878,
 2016-Nov-12 04:00:00, , , 48.2722469,  2.5178772,
 2016-Nov-12 05:00:00, , , 52.5439651,  2.5809950,
 2016-Nov-12 06:00:00, , , 56.8107196,  2.6297375,
 2016-Nov-12 07:00:00, , , 61.0722158,  2.6638862,
 2016-Nov-12 08:00:00, , , 65.3281850,  2.6833080,
 2016-Nov-12 09:00:00, , , 69.5783876,  2.6879546,
 2016-Nov-12 10:00:00, , , 73.8226161,  2.6778618,
 2016-Nov-12 11:00:00, , , 78.0606970,  2.6531475,
 2016-Nov-12 12:00:00, , , 82.2924938,  2.6140099,
 2016-Nov-12 13:00:00, , , 86.5179085,  2.5607251,
 2016-Nov-12 14:00:00, , , 90.7368832,  2.4936440,
 2016-Nov-12 15:00:00, , , 94.9494018,  2.4131892,
 2016-Nov-12 16:00:00, , , 99.1554902,  2.3198512,
 2016-Nov-12 17:00:00, , ,103.3552174,  2.2141848,
